StoreName,Street,City,State,StoreTiminings,Phone,EmailId,Latitude,Longitude,ZipCode
Pet Pros Issaquah,4574 Klahanie Dr SE,Issaquah,WA,Mon : 10 AM - 7 PM | Tue : 10 AM - 7 PM | Wed : 10 AM - 7 PM | Thu : 10 AM - 7 PM | Fri : 10 AM - 7 PM | Sat : 10 AM - 7 PM | Sun : 10 AM - 6 PM,425-369-1115,klahanie@petpros.net,47.5660304,-122.0037554,98029
Pet Pros Monroe,19575 State Route 2,Monroe,WA,Mon : 9:30 AM - 7:30 PM | Tue : 9:30 AM - 7:30 PM | Wed : 9:30 AM - 7:30 PM | Thu : 9:30 AM - 7:30 PM | Fri : 9:30 AM - 7:30 PM | Sat : 9:30 AM - 7:30 PM | Sun : 10 AM - 6 PM,360-863-9263,monroe@petpros.net,47.8597376,-121.9629458,98272
Pet Pros Bellevue,"1100 Bellevue Way NE,Suite 8",Bellevue,WA,Mon : 9:30 AM - 7:30 PM | Tue : 9:30 AM - 7:30 PM | Wed : 9:30 AM - 7:30 PM | Thu : 9:30 AM - 7:30 PM | Fri : 9:30 AM - 7:30 PM | Sat : 9:30 AM - 7:30 PM | Sun : 10 AM - 6 PM,425-455-3797,bellevue@petpros.net,47.5996552,-122.2001791,98004
Pet Pros Bothell,24024 Bothell Everett Hwy,Bothell,WA,Mon : 9:30 AM - 7:30 PM | Tue : 9:30 AM - 7:30 PM | Wed : 9:30 AM - 7:30 PM | Thu : 9:30 AM - 7:30 PM | Fri : 9:30 AM - 7:30 PM | Sat : 9:30 AM - 7:30 PM | Sun : 10 AM - 6 PM,425-286-6751,bothellsouth@petpros.net,47.7789796,-122.2207118,98021
Pet Pros Tacoma,2665 N Pearl St,Tacoma,WA,Mon : 9:30 AM - 7:30 PM | Tue : 9:30 AM - 7:30 PM | Wed : 9:30 AM - 7:30 PM | Thu : 9:30 AM - 7:30 PM | Fri : 9:30 AM - 7:30 PM | Sat : 9:30 AM - 7:30 PM | Sun : 10 AM - 6 PM,253-301-1857,tacoma@petpros.net,47.2734221,-122.5138673,98407
Pet Pros Puyallup,"5614 176th St East,#B-104",Puyallup,WA,Mon : 9:30 AM - 7:30 PM | Tue : 9:30 AM - 7:30 PM | Wed : 9:30 AM - 7:30 PM | Thu : 9:30 AM - 7:30 PM | Fri : 9:30 AM - 7:30 PM | Sat : 9:30 AM - 7:30 PM | Sun : 10 AM - 6 PM,253-271-1904,puyallup@petpros.net,47.0952115,-122.3539659,98375
Pet Pros Woodinville,"19400 144th Ave NE,Bldg 6E",Woodinville,WA,Mon : 8 AM - 5 PM | Tue : 8 AM - 5 PM | Wed : 8 AM - 5 PM | Thu : 8 AM - 5 PM | Fri : 8 AM - 5 PM | Sat : Closed | Sun : Closed,425-402-8833,customerservice@petpros.net,47.748918100000004,-122.1704434,98072
Pet Pros Newcastle,6927 Coal Creek Pkwy SE,Newcastle,WA,Mon : 9:30 AM - 7:30 PM | Tue : 9:30 AM - 7:30 PM | Wed : 9:30 AM - 7:30 PM | Thu : 9:30 AM - 7:30 PM | Fri : 9:30 AM - 7:30 PM | Sat : 9:30 AM - 7:30 PM | Sun : 10 AM - 6 PM,425-274-1130,coalcreek@petpros.net,47.5388866,-122.1675746,98059
Pet Pros Renton,4700 NE 4th St,Renton,WA,Mon : 9:30 AM - 7:30 PM | Tue : 9:30 AM - 7:30 PM | Wed : 9:30 AM - 7:30 PM | Thu : 9:30 AM - 7:30 PM | Fri : 9:30 AM - 7:30 PM | Sat : 9:30 AM - 7:30 PM | Sun : 10 AM - 6 PM,425-271-5334,renton@petpros.net,47.4897296,-122.15565590000001,98059
Pet Pros Maple Valley,"26520 Maple Valley Black Diamond Rd SE,Suite 104",Maple Valley,WA,Mon : 9:30 AM - 7:30 PM | Tue : 9:30 AM - 7:30 PM | Wed : 9:30 AM - 7:30 PM | Thu : 9:30 AM - 7:30 PM | Fri : 9:30 AM - 7:30 PM | Sat : 9:30 AM - 7:30 PM | Sun : 10 AM - 6 PM,425-358-7178,maplevalley@petpros.net,47.36343189999999,-122.0196454,98038
Pet Pros Seattle,"2236 32nd Avenue West,Suite B",Seattle,WA,Mon : 9:30 AM - 7:30 PM | Tue : 9:30 AM - 7:30 PM | Wed : 9:30 AM - 7:30 PM | Thu : 9:30 AM - 7:30 PM | Fri : 9:30 AM - 7:30 PM | Sat : 9:30 AM - 7:30 PM | Sun : 10 AM - 6 PM,206-285-3782,magnolia@petpros.net,47.6392845,-122.3979892,98199
Pet Pros Seattle,9033 25th Ave SW,Seattle,WA,Mon : 9:30 AM - 7:30 PM | Tue : 9:30 AM - 7:30 PM | Wed : 9:30 AM - 7:30 PM | Thu : 9:30 AM - 7:30 PM | Fri : 9:30 AM - 7:30 PM | Sat : 9:30 AM - 7:30 PM | Sun : 10 AM - 6 PM,206-932-2206,westseattle@petpros.net,47.5223627,-122.3656001,98106
Pet Pros Seattle,10304 Lake City Way NE,Seattle,WA,Mon : 9:30 AM - 7:30 PM | Tue : 9:30 AM - 7:30 PM | Wed : 9:30 AM - 7:30 PM | Thu : 9:30 AM - 7:30 PM | Fri : 9:30 AM - 7:30 PM | Sat : 9:30 AM - 7:30 PM | Sun : 10 AM - 6 PM,206-525-4038,lakecity@petpros.net,47.7032216,-122.3013107,98125
Pet Pros Milton,900 Meridian Ave E,Milton,WA,Mon : 9:30 AM - 7:30 PM | Tue : 9:30 AM - 7:30 PM | Wed : 9:30 AM - 7:30 PM | Thu : 9:30 AM - 7:30 PM | Fri : 9:30 AM - 7:30 PM | Sat : 9:30 AM - 7:30 PM | Sun : 10 AM - 6 PM,253-517-0911,milton@petpros.net,47.2480392,-122.29517870000001,98354
Pet Pros Lake Stevens,"701 State Route 9 NE,Suite B",Lake Stevens,WA,Mon : 9:30 AM - 7:30 PM | Tue : 9:30 AM - 7:30 PM | Wed : 9:30 AM - 7:30 PM | Thu : 9:30 AM - 7:30 PM | Fri : 9:30 AM - 7:30 PM | Sat : 9:30 AM - 7:30 PM | Sun : 10 AM - 6 PM,425-334-1112,lakestevens@petpros.net,48.002755300000004,-122.10372109999999,98258
Pet Pros Renton,10583 SE Carr Rd,Renton,WA,Mon : 9:30 AM - 7:30 PM | Tue : 9:30 AM - 7:30 PM | Wed : 9:30 AM - 7:30 PM | Thu : 9:30 AM - 7:30 PM | Fri : 9:30 AM - 7:30 PM | Sat : 9:30 AM - 7:30 PM | Sun : 10 AM - 6 PM,425-282-0408,benson@petpros.net,47.4436846,-122.19947750000001,98055
Pet Pros Auburn,1404 Lake Tapps Pkwy E,Auburn,WA,Mon : 9:30 AM - 7:30 PM | Tue : 9:30 AM - 7:30 PM | Wed : 9:30 AM - 7:30 PM | Thu : 9:30 AM - 7:30 PM | Fri : 9:30 AM - 7:30 PM | Sat : 9:30 AM - 7:30 PM | Sun : 10 AM - 6 PM,253-333-8122,lakeland@petpros.net,47.2429904,-122.2104228,98092
Pet Pros Mill Creek,13402 Bothell Everett Hwy,Mill Creek,WA,Mon : 9:30 AM - 7:30 PM | Tue : 9:30 AM - 7:30 PM | Wed : 9:30 AM - 7:30 PM | Thu : 9:30 AM - 7:30 PM | Fri : 9:30 AM - 7:30 PM | Sat : 9:30 AM - 7:30 PM | Sun : 10 AM - 6 PM,425-338-5944,millcreek@petpros.net,47.8761305,-122.2140247,98012
Pet Pros Bonney Lake,"21201 State Route 410,#A9",Bonney Lake,WA,Mon : 9:30 AM - 7:30 PM | Tue : 9:30 AM - 7:30 PM | Wed : 9:30 AM - 7:30 PM | Thu : 9:30 AM - 7:30 PM | Fri : 9:30 AM - 7:30 PM | Sat : 10 AM - 7:30 PM | Sun : 10 AM - 6 PM,253-826-1841,bonneylake@petpros.net,47.16627099999999,-122.1457894,98391
